{
  "thanas": [
    {
      "id": 1,
      "district_id": 1,
      "bn_name": "রমনা",
      "name": "Ramna",
      "phone": "01713373125"
    },
    {
      "id": 2,
      "district_id": 1,
      "bn_name": "ধানমন্ডি",
      "name": "Dhanmondi",
      "phone": "01713373126"
    },
    {
      "id": 3,
      "district_id": 1,
      "bn_name": "শাহবাগ",
      "name": "Shahbag",
      "phone": "01713373126"
    },
    {
      "id": 4,
      "district_id": 1,
      "bn_name": "নিউ মার্কেট",
      "name": "New Market",
      "phone": "01713373126"
    },
    {
      "id": 5,
      "district_id": 1,
      "bn_name": "লালবাগ",
      "name": "Lalbagh",
      "phone": "01713373134"
    },
    {
      "id": 6,
      "district_id": 1,
      "bn_name": "কোতোয়ালী",
      "name": "Kotwali",
      "phone": "01713373135"
    },
    {
      "id": 7,
      "district_id": 1,
      "bn_name": "হাজারীবাগ",
      "name": "Hazaribagh",
      "phone": "01713373136"
    },
    {
      "id": 8,
      "district_id": 1,
      "bn_name": "কামরাঙ্গীরচর",
      "name": "Kamrangirchar",
      "phone": "01713373136"
    },
    {
      "id": 9,
      "district_id": 1,
      "bn_name": "সূত্রাপুর",
      "name": "Sutrapur",
      "phone": "01713373143"
    },
    {
      "id": 10,
      "district_id": 1,
      "bn_name": "ডেমরা",
      "name": "Demra",
      "phone": "01713373144"
    },
    {
      "id": 11,
      "district_id": 1,
      "bn_name": "শ্যামপুর",
      "name": "Shampur",
      "phone": "01713373145"
    },
    {
      "id": 12,
      "district_id": 1,
      "bn_name": "জাতরাবাড়ী",
      "name": "Jatrabari",
      "phone": "01713373147"
    },
    {
      "id": 13,
      "district_id": 1,
      "bn_name": "মতিঝিল",
      "name": "Motijheel",
      "phone": "01713373152"
    },
    {
      "id": 14,
      "district_id": 1,
      "bn_name": "সবুজবাগ",
      "name": "Sabujbagh",
      "phone": "01713373153"
    },
    {
      "id": 15,
      "district_id": 1,
      "bn_name": "খিলগাঁও",
      "name": "Khilgaon",
      "phone": "01713373154"
    },
    {
      "id": 16,
      "district_id": 1,
      "bn_name": "প্লাটু",
      "name": "platoon",
      "phone": "01713373155"
    },
    {
      "id": 17,
      "district_id": 1,
      "bn_name": "উত্তরা",
      "name": "Uttara",
      "phone": "01713373171"
    },
    {
      "id": 18,
      "district_id": 1,
      "bn_name": "এয়ারপোর্ট",
      "name": "Airport",
      "phone": "01713373172"
    },
    {
      "id": 19,
      "district_id": 1,
      "bn_name": "তুরাগ",
      "name": "Turag",
      "phone": "01713373173"
    },
    {
      "id": 20,
      "district_id": 1,
      "bn_name": "উত্তরখান",
      "name": "Uttarkhan",
      "phone": "01713373174"
    },
    {
      "id": 21,
      "district_id": 1,
      "bn_name": "দক্ষিণ খান",
      "name": "Dakshin Khan",
      "phone": "01713373175"
    },
    {
      "id": 22,
      "district_id": 1,
      "bn_name": "গুলশান",
      "name": "Gulshan",
      "phone": "01713373171"
    },
    {
      "id": 23,
      "district_id": 1,
      "bn_name": "ক্যান্টনমেন্ট",
      "name": "Cantonment",
      "phone": "01713373172"
    },
    {
      "id": 24,
      "district_id": 1,
      "bn_name": "বাড্ডা",
      "name": "Badda",
      "phone": "01713373173"
    },
    {
      "id": 25,
      "district_id": 1,
      "bn_name": "খিলক্ষেত",
      "name": "Khilkhet",
      "phone": "01713373174"
    },
    {
      "id": 26,
      "district_id": 1,
      "bn_name": "তেজগাঁও",
      "name": "Tejgaon",
      "phone": "01713373160"
    },
    {
      "id": 27,
      "district_id": 1,
      "bn_name": "তেজগাঁও শি / এ-",
      "name": "Tejgaon Shi / A-",
      "phone": "01713373171"
    },
    {
      "id": 28,
      "district_id": 1,
      "bn_name": "মোহাম্মদপুর",
      "name": "Mohammadpur",
      "phone": "01713373172"
    },
    {
      "id": 29,
      "district_id": 1,
      "bn_name": "আদাবর",
      "name": "Adabar",
      "phone": "01713373173"
    },
    {
      "id": 30,
      "district_id": 1,
      "bn_name": "মিরপুর",
      "name": "Mirpur",
      "phone": "01713373179"
    },
    {
      "id": 31,
      "district_id": 1,
      "bn_name": "পল্লবী",
      "name": "Pallabi",
      "phone": "01713373190"
    },
    {
      "id": 32,
      "district_id": 1,
      "bn_name": "কাফরুল",
      "name": "Kafrul",
      "phone": "01713373191"
    },
    {
      "id": 33,
      "district_id": 1,
      "bn_name": "শাহ আলী",
      "name": "Shah Ali",
      "phone": "01713373192"
    },
    {
      "id": 34,
      "district_id": 43,
      "bn_name": "কোতোয়ালী",
      "name": "Kotwali",
      "contact": "01713373256"
    },
    {
      "id": 35,
      "district_id": 43,
      "bn_name": "পাহাড়তলী (উত্তর জোন)",
      "name": "Pahartali (North Zone)",
      "contact": "01713373256"
    },
    {
      "id": 36,
      "district_id": 43,
      "bn_name": "পাচলাইশ",
      "name": "Pachlaish",
      "contact": "01713373256"
    },
    {
      "id": 37,
      "district_id": 43,
      "bn_name": "চাঁদগাঁও",
      "name": "Chandgaon",
      "contact": "01713373259"
    },
    {
      "id": 38,
      "district_id": 43,
      "bn_name": "খুলসি",
      "name": "Khulsi",
      "contact": "01713373270"
    },
    {
      "id": 39,
      "district_id": 43,
      "bn_name": "বাকুলিয়া",
      "name": "Bakulia",
      "contact": "01713373271"
    },
    {
      "id": 40,
      "district_id": 43,
      "bn_name": "বয়েজিদ বোস্তামী",
      "name": "Bayezid Bostami",
      "contact": "01713373272"
    },
    {
      "id": 41,
      "district_id": 43,
      "bn_name": "পোর্ট",
      "name": "Port",
      "contact": "0171337327"
    },
    {
      "id": 42,
      "district_id": 43,
      "bn_name": "ডাবল মুয়ারিং",
      "name": "Double Mooring",
      "contact": "0171337327"
    },
    {
      "id": 43,
      "district_id": 43,
      "bn_name": "হালিশহর",
      "name": "Halishahar",
      "contact": "01713373279"
    },
    {
      "id": 44,
      "district_id": 43,
      "bn_name": "পাটেঙ্গা",
      "name": "Patenga",
      "contact": "01713373270"
    },
    {
      "id": 45,
      "district_id": 43,
      "bn_name": "কর্ণফুলি",
      "name": "Karnafuli",
      "contact": "01713373271"
    },
    {
      "id": 46,
      "district_id": 43,
      "bn_name": "ইমিগ্রেশন (পোর্ট)",
      "name": "Immigration (Port)",
      "contact": "01713373272"
    },
    {
      "id": 47,
      "district_id": 43,
      "bn_name": "পাহাড়তলী (পোর্ট জোন)",
      "name": "Pahartali (Port Zone)",
      "contact": "01713373263"
    },
    {
      "id": 48,
      "district_id": 59,
      "bn_name": "খুলনা",
      "name": "Khulna",
      "phone": "01713373275"
    },
    {
      "id": 49,
      "district_id": 59,
      "bn_name": "সোনাডাঙ্গা",
      "name": "Sonadanga",
      "phone": "0171337327"
    },
    {
      "id": 50,
      "district_id": 59,
      "bn_name": "খালিশপুর",
      "name": "Khalishpur",
      "phone": "0171337327"
    },
    {
      "id": 51,
      "district_id": 59,
      "bn_name": "ডৌলতপুর",
      "name": "Daulatpur",
      "phone": "0171337327"
    },
    {
      "id": 52,
      "district_id": 59,
      "bn_name": "খানজাহান আলি",
      "name": "Khanjahan Ali",
      "phone": "01713373289"
    },
    {
      "id": 53,
      "district_id": 24,
      "bn_name": "বোয়ালিয়া",
      "name": "Boalia",
      "phone": "01713373309"
    },
    {
      "id": 54,
      "district_id": 24,
      "bn_name": "রাজাপুর",
      "name": "Rajapur",
      "phone": "01713373310"
    },
    {
      "id": 55,
      "district_id": 24,
      "bn_name": "মতিহার",
      "name": "Motihar",
      "phone": "01713373311"
    },
    {
      "id": 56,
      "district_id": 24,
      "bn_name": "শাহ মখদুম",
      "name": "Shah Makdum",
      "phone": "01713373312"
    },
    {
      "id": 57,
      "division_id": 1,
      "bn_name": "সাভার",
      "name": "Savar",
      "phone": "01713373327"
    },
    {
      "id": 58,
      "division_id": 1,
      "bn_name": "ধামরাই",
      "name": "Dhamrai",
      "phone": "01713373327"
    },
    {
      "id": 59,
      "division_id": 1,
      "bn_name": "কেরাণীগঞ্জ",
      "name": "Keraniganj",
      "phone": "01713373329"
    },
    {
      "id": 60,
      "division_id": 1,
      "bn_name": "নবাবগঞ্জ",
      "name": "Nawabganj",
      "phone": "01713373330"
    },
    {
      "id": 61,
      "division_id": 1,
      "bn_name": "দোহার",
      "name": "Dohar",
      "phone": "01713373331"
    },
    {
      "id": 62,
      "division_id": 1,
      "bn_name": "আশুলিয়া",
      "name": "Ashulia",
      "phone": "01713373332"
    },
    {
      "id": 63,
      "division_id": 1,
      "bn_name": "সাউথ কেরাণীগঞ্জ",
      "name": "South Keraniganj",
      "phone": "01713373333"
    },
    {
      "id": 64,
      "district_id": 11,
      "bn_name": "নারায়ণগঞ্জ",
      "name": "Narayanganj",
      "phone": "01713373345"
    },
    {
      "id": 65,
      "district_id": 11,
      "bn_name": "ফতুল্লা",
      "name": "Fatullah",
      "phone": "01713373347"
    },
    {
      "id": 66,
      "district_id": 11,
      "bn_name": "পোর্ট",
      "name": "Port",
      "phone": "01713373347"
    },
    {
      "id": 67,
      "district_id": 11,
      "bn_name": "সিদ্ধিরগঞ্জ",
      "name": "Siddirganj",
      "phone": "01713373347"
    },
    {
      "id": 68,
      "district_id": 11,
      "bn_name": "আড়াইহাজার",
      "name": "Araihazar",
      "phone": "01713373349"
    },
    {
      "id": 69,
      "district_id": 11,
      "bn_name": "সোনারগাঁও",
      "name": "Sonargaon",
      "phone": "01713373350"
    },
    {
      "id": 70,
      "district_id": 11,
      "bn_name": "রূপগঞ্জ",
      "name": "Rupganj",
      "phone": "01713373351"
    },
    {
      "id": 71,
      "district_id": 3,
      "bn_name": "জয়দেবপুর",
      "name": "Joydevpur",
      "phone": "01713373373"
    },
    {
      "id": 72,
      "district_id": 3,
      "bn_name": "টঙ্গী",
      "name": "Tongi",
      "phone": "01713373374"
    },
    {
      "id": 73,
      "district_id": 3,
      "bn_name": "কালিয়াকৈর",
      "name": "Kaliakair",
      "phone": "01713373375"
    },
    {
      "id": 74,
      "district_id": 3,
      "bn_name": "শ্রীপুর",
      "name": "Sreepur",
      "phone": "01713373377"
    },
    {
      "id": 75,
      "district_id": 3,
      "bn_name": "কাপাসিয়া",
      "name": "Kapasia",
      "phone": "01713373376"
    },
    {
      "id": 76,
      "district_id": 3,
      "bn_name": "কালীগঞ্জ",
      "name": "Kaliganj",
      "phone": "01713373377"
    },
    {
      "id": 77,
      "district_id": 8,
      "bn_name": "মানিকগঞ্জ",
      "name": "Manikganj",
      "phone": "01713373369"
    },
    {
      "id": 78,
      "district_id": 8,
      "bn_name": "ঘিওর",
      "name": "Ghior",
      "phone": "01713373360"
    },
    {
      "id": 79,
      "district_id": 8,
      "bn_name": "শিবালয়া",
      "name": "Shibalaya",
      "phone": "01713373371"
    },
    {
      "id": 80,
      "district_id": 8,
      "bn_name": "দৌলতপুর",
      "name": "Daulatpur",
      "phone": "01713373372"
    },
    {
      "id": 81,
      "district_id": 8,
      "bn_name": "হরিরামপুর",
      "name": "Harirampur",
      "phone": "01713373373"
    },
    {
      "id": 82,
      "district_id": 8,
      "bn_name": "সাটুরিয়া",
      "name": "Saturia",
      "phone": "01713373374"
    },
    {
      "id": 83,
      "district_id": 8,
      "bn_name": "সিংগাইর",
      "name": "Singair",
      "phone": "01713373375"
    },
    {
      "id": 84,
      "district_id": 9,
      "bn_name": "মুন্সিগঞ্জ",
      "name": "Munshiganj",
      "phone": "01713373396"
    },
    {
      "id": 85,
      "district_id": 9,
      "bn_name": "টঙ্গিবাড়ি",
      "name": "Tongibari",
      "phone": "01713373396"
    },
    {
      "id": 86,
      "district_id": 9,
      "bn_name": "লৌহজং",
      "name": "Louhjong",
      "phone": "01713373396"
    },
    {
      "id": 87,
      "district_id": 9,
      "bn_name": "শ্রীনগর",
      "name": "Srinagar",
      "phone": "01713373399"
    },
    {
      "id": 88,
      "district_id": 9,
      "bn_name": "সিরাজদিখান",
      "name": "Sirajdikhan",
      "phone": "01713373400"
    },
    {
      "id": 89,
      "district_id": 9,
      "bn_name": "গজারিয়া",
      "name": "Gazaria",
      "phone": "01713373401"
    },
    {
      "id": 90,
      "district_id": 12,
      "bn_name": "নরসিংদী",
      "name": "Narsingdi",
      "phone": "01713373412"
    },
    {
      "id": 91,
      "district_id": 12,
      "bn_name": "রায়পুর",
      "name": "Raipur",
      "phone": "01713373413"
    },
    {
      "id": 92,
      "district_id": 12,
      "bn_name": "শিবপুর",
      "name": "Shibpur",
      "phone": "01713373414"
    },
    {
      "id": 93,
      "district_id": 12,
      "bn_name": "বেলাবো",
      "name": "Belabo",
      "phone": "01713373415"
    },
    {
      "id": 94,
      "district_id": 12,
      "bn_name": "মনোহরদী",
      "name": "Manohardi",
      "phone": "01713373418"
    },
    {
      "id": 95,
      "district_id": 12,
      "bn_name": "পলাশ",
      "name": "Palash",
      "phone": "01713373418"
    },
    {
      "id": 96,
      "district_id": 10,
      "bn_name": "কোতোয়ালি ময়মনসিংহ",
      "name": "Kotwali Mymensingh",
      "phone": "01713373430"
    },
    {
      "id": 97,
      "district_id": 10,
      "bn_name": "মুক্তাগাছা",
      "name": "Muktagachha",
      "phone": "01713373431"
    },
    {
      "id": 98,
      "district_id": 10,
      "bn_name": "ফুলবাড়ি",
      "name": "Phulbari",
      "phone": "01713373432"
    },
    {
      "id": 99,
      "district_id": 10,
      "bn_name": "ত্রিশাল",
      "name": "Trishal",
      "phone": "01713373433"
    },
    {
      "id": 100,
      "district_id": 10,
      "bn_name": "গৌরীপুর",
      "name": "Gauripur",
      "phone": "01713373434"
    },
    {
      "id": 101,
      "district_id": 10,
      "bn_name": "ঈশ্বরগঞ্জ",
      "name": "Ishwarganj",
      "phone": "01713373435"
    },
    {
      "id": 102,
      "district_id": 10,
      "bn_name": "নান্দাইল",
      "name": "Nandail",
      "phone": "01713373436"
    },
    {
      "id": 103,
      "district_id": 10,
      "bn_name": "ফুলপুর",
      "name": "Phulpur",
      "phone": "01713373436"
    },
    {
      "id": 104,
      "district_id": 10,
      "bn_name": "হালুয়াঘাট",
      "name": "Haluaghat",
      "phone": "01713373436"
    },
    {
      "id": 105,
      "district_id": 10,
      "bn_name": "ধোবাউড়া",
      "name": "Dhobaura",
      "phone": "01713373439"
    },
    {
      "id": 106,
      "district_id": 10,
      "bn_name": "গফরগাঁও",
      "name": "Gafargaon",
      "phone": "01713373440"
    },
    {
      "id": 107,
      "district_id": 10,
      "bn_name": "ভালুকা",
      "name": "Bhaluka",
      "phone": "01713373441"
    },
    {
      "id": 108,
      "district_id": 10,
      "bn_name": "তারাকান্দা",
      "name": "Tarakanda",
      "phone": "01713373442"
    },
    {
      "id": 109,
      "district_id": 17,
      "bn_name": "টাঙ্গাইল",
      "name": "Tangail",
      "phone": "01713373454"
    },
    {
      "id": 110,
      "district_id": 17,
      "bn_name": "মির্জাপুর",
      "name": "Mirzapur",
      "phone": "01713373455"
    },
    {
      "id": 111,
      "district_id": 17,
      "bn_name": "নাগরপুর",
      "name": "Nagarpur",
      "phone": "01713373456"
    },
    {
      "id": 112,
      "district_id": 17,
      "bn_name": "সখিপুর",
      "name": "Sakhipur",
      "phone": "01713373456"
    },
    {
      "id": 113,
      "district_id": 17,
      "bn_name": "বাসাইল",
      "name": "Basail",
      "phone": "01713373456"
    },
    {
      "id": 114,
      "district_id": 17,
      "bn_name": "দেলদুয়ার",
      "name": "Delduar",
      "phone": "01713373459"
    },
    {
      "id": 115,
      "district_id": 17,
      "bn_name": "মধুপুর",
      "name": "Madhupur",
      "phone": "01713373480"
    },
    {
      "id": 116,
      "district_id": 17,
      "bn_name": "ঘাটাইল",
      "name": "Ghatail",
      "phone": "01713373481"
    },
    {
      "id": 117,
      "district_id": 17,
      "bn_name": "কালিহাতী",
      "name": "Kalihati",
      "phone": "01713373482"
    },
    {
      "id": 118,
      "district_id": 17,
      "bn_name": "ভূপুর",
      "name": "Bhuapur",
      "phone": "01713373483"
    },
    {
      "id": 119,
      "district_id": 17,
      "bn_name": "জমুনা ব্রিজ ইস্ট",
      "name": "Jamuna Bridge East",
      "phone": "01713373484"
    },
    {
      "id": 120,
      "district_id": 17,
      "bn_name": "ধনবাড়ী",
      "name": "Dhanbari",
      "phone": "01713373465"
    },
    {
      "id": 121,
      "district_id": 17,
      "bn_name": "গোপালপুর",
      "name": "Gopalpur",
      "phone": "0171337348"
    },
    {
      "id": 122,
      "district_id": 6,
      "bn_name": "কিশোরগঞ্জ",
      "name": "Kishoreganj",
      "phone": "01713373480"
    },
    {
      "id": 123,
      "district_id": 6,
      "bn_name": "করিমগঞ্জ",
      "name": "Karimganj",
      "phone": "01713373481"
    },
    {
      "id": 124,
      "district_id": 6,
      "bn_name": "তাড়াইল",
      "name": "Tarail",
      "phone": "01713373482"
    },
    {
      "id": 125,
      "district_id": 6,
      "bn_name": "হোসেনপুর",
      "name": "Hossainpur",
      "phone": "01713373483"
    },
    {
      "id": 126,
      "district_id": 6,
      "bn_name": "কটিয়াদি",
      "name": "Katiadi",
      "phone": "01713373484"
    },
    {
      "id": 127,
      "district_id": 6,
      "bn_name": "বাজিতপুর",
      "name": "Bajitpur",
      "phone": "01713373465"
    },
    {
      "id": 128,
      "district_id": 6,
      "bn_name": "কুলিয়ারচর",
      "name": "Kuliyarchar",
      "phone": "0171337348"
    },
    {
      "id": 129,
      "district_id": 6,
      "bn_name": "ভৈরব",
      "name": "Bhairab",
      "phone": "0171337348"
    },
    {
      "id": 130,
      "district_id": 6,
      "bn_name": "ইটনা",
      "name": "Itna",
      "phone": "0171337348"
    },
    {
      "id": 131,
      "district_id": 6,
      "bn_name": "মিঠামইন",
      "name": "Mithamin",
      "phone": "01713373489"
    },
    {
      "id": 132,
      "district_id": 6,
      "bn_name": "নিকলী",
      "name": "Nikli",
      "phone": "01713373490"
    },
    {
      "id": 133,
      "district_id": 6,
      "bn_name": "পাকুন্দিয়া",
      "name": "Pakundia",
      "phone": "01713373491"
    },
    {
      "id": 134,
      "district_id": 6,
      "bn_name": "আশ্তগ্রাম",
      "name": "Ashtagram",
      "phone": "01713373492"
    },
    {
      "id": 135,
      "district_id": 13,
      "bn_name": "নেত্রকোণা",
      "name": "Netrokona",
      "phone": "01713373505"
    },
    {
      "id": 136,
      "district_id": 13,
      "bn_name": "বরহাট্টা",
      "name": "Barhatta",
      "phone": "01713373506"
    },
    {
      "id": 137,
      "district_id": 13,
      "bn_name": "কলমাকান্দা",
      "name": "Kalmakanda",
      "phone": "01713373506"
    },
    {
      "id": 138,
      "district_id": 13,
      "bn_name": "আটপাড়া",
      "name": "Atpara",
      "phone": "01713373506"
    },
    {
      "id": 139,
      "district_id": 13,
      "bn_name": "দুর্গাপুর",
      "name": "Durgapur",
      "phone": "01713373509"
    },
    {
      "id": 140,
      "district_id": 13,
      "bn_name": "পূর্বধলা",
      "name": "Purbadhala",
      "phone": "01713373510"
    },
    {
      "id": 141,
      "district_id": 13,
      "bn_name": "কেন্দুয়া",
      "name": "Kendua",
      "phone": "01713373511"
    },
    {
      "id": 142,
      "district_id": 13,
      "bn_name": "মদন",
      "name": "Madan",
      "phone": "01713373512"
    },
    {
      "id": 143,
      "district_id": 13,
      "bn_name": "মোহনগঞ্জ",
      "name": "Mohanganj",
      "phone": "01713373513"
    },
    {
      "id": 144,
      "district_id": 13,
      "bn_name": "খালিজুরি",
      "name": "Khalijuri",
      "phone": "01713373514"
    },
    {
      "id": 145,
      "district_id": 13,
      "bn_name": "শেরপুর",
      "name": "Sherpur",
      "phone": "01713373523"
    },
    {
      "id": 146,
      "district_id": 16,
      "bn_name": "নাকলা",
      "name": "Nakla",
      "phone": "01713373524"
    },
    {
      "id": 147,
      "district_id": 16,
      "bn_name": "নালিতাবাড়ি",
      "name": "Nalitabari",
      "phone": "01713373525"
    },
    {
      "id": 148,
      "district_id": 16,
      "bn_name": "শ্রীবরদি",
      "name": "Srivardi",
      "phone": "01713373526"
    },
    {
      "id": 149,
      "district_id": 16,
      "bn_name": "ঝিনাইগাতি",
      "name": "Jhenaigati",
      "phone": "01713373526"
    },
    {
      "id": 150,
      "district_id": 5,
      "bn_name": "জামালপুর",
      "name": "Jamalpur",
      "phone": "01713373537"
    },
    {
      "id": 151,
      "district_id": 5,
      "bn_name": "মেলান্দহ",
      "name": "Melandah",
      "phone": "01713373539"
    },
    {
      "id": 152,
      "district_id": 5,
      "bn_name": "সরিষাবাড়ি",
      "name": "Sarishabari",
      "phone": "01713373540"
    },
    {
      "id": 153,
      "district_id": 5,
      "bn_name": "দেওয়ানগঞ্জ",
      "name": "Dewanganj",
      "phone": "01713373541"
    },
    {
      "id": 154,
      "district_id": 5,
      "bn_name": "ইসলামপুর",
      "name": "Islampur",
      "phone": "01713373542"
    },
    {
      "id": 155,
      "district_id": 5,
      "bn_name": "মাদারগঞ্জ",
      "name": "Madarganj",
      "phone": "01713373543"
    },
    {
      "id": 156,
      "district_id": 5,
      "bn_name": "বকশিগঞ্জ",
      "name": "Bakshiganj",
      "phone": "01713373544"
    },
    {
      "id": 157,
      "district_id": 5,
      "bn_name": "বাহাদুরাবাদ",
      "name": "Bahadurabad",
      "phone": "01713373545"
    },
    {
      "id": 158,
      "district_id": 2,
      "bn_name": "ফরিদপুর কোতোয়ালী",
      "name": "Kotwali Faridpur",
      "phone": "01713373556"
    },
    {
      "id": 159,
      "district_id": 2,
      "bn_name": "মধুখালি",
      "name": "Madhukhali",
      "phone": "01713373556"
    },
    {
      "id": 160,
      "district_id": 2,
      "bn_name": "বোয়ালমারী",
      "name": "Boalmari",
      "phone": "01713373556"
    },
    {
      "id": 161,
      "district_id": 2,
      "bn_name": "আলফাডাঙ্গা",
      "name": "Alfadanga",
      "phone": "01713373559"
    },
    {
      "id": 162,
      "district_id": 2,
      "bn_name": "চরভদ্রাসন",
      "name": "Charbhadrasan",
      "phone": "01713373560"
    },
    {
      "id": 163,
      "district_id": 2,
      "bn_name": "নাগরকান্ডা",
      "name": "Nagarkanda",
      "phone": "01713373571"
    },
    {
      "id": 164,
      "district_id": 2,
      "bn_name": "সদরপুর",
      "name": "Sadarpur",
      "phone": "01713373562"
    },
    {
      "id": 165,
      "district_id": 2,
      "bn_name": "সালটা",
      "name": "Salta",
      "phone": "01713373573"
    },
    {
      "id": 166,
      "district_id": 2,
      "bn_name": "ভাঙ্গা",
      "name": "Bhanga",
      "phone": "01713373574"
    },
    {
      "id": 167,
      "district_id": 4,
      "bn_name": "গোপালগঞ্জ",
      "name": "Gopalganj",
      "phone": "01713373562"
    },
    {
      "id": 168,
      "district_id": 4,
      "bn_name": "মকসুদপুর",
      "name": "Maksudpur",
      "phone": "01713373573"
    },
    {
      "id": 169,
      "district_id": 4,
      "bn_name": "কাশিয়ানী",
      "name": "Kashiani",
      "phone": "01713373574"
    },
    {
      "id": 170,
      "district_id": 4,
      "bn_name": "কোটালীপাড়া",
      "name": "Kotalipara",
      "phone": "01713373575"
    },
    {
      "id": 171,
      "district_id": 4,
      "bn_name": "টুংগীপাড়া",
      "name": "Tungipara",
      "phone": "0171337356"
    },
    {
      "id": 172,
      "district_id": 7,
      "bn_name": "মাদারীপুর",
      "name": "Madaripur",
      "phone": "01713373575"
    },
    {
      "id": 173,
      "district_id": 7,
      "bn_name": "রাজোয়র",
      "name": "Rajoir",
      "phone": "0171337356"
    },
    {
      "id": 174,
      "district_id": 7,
      "bn_name": "কালকিনি",
      "name": "Kalkini",
      "phone": "0171337356"
    },
    {
      "id": 175,
      "district_id": 7,
      "bn_name": "শিবচর",
      "name": "Shivchar",
      "phone": "0171337356"
    },
    {
      "id": 176,
      "district_id": 14,
      "bn_name": "রাজবাড়ী",
      "name": "Rajbari",
      "phone": "01713373596"
    },
    {
      "id": 177,
      "district_id": 14,
      "bn_name": "বালিয়াকান্দি",
      "name": "Baliakandi",
      "phone": "01713373599"
    },
    {
      "id": 178,
      "district_id": 14,
      "bn_name": "পাংশা",
      "name": "Pangsha",
      "phone": "01713373600"
    },
    {
      "id": 179,
      "district_id": 14,
      "bn_name": "গোয়ালন্দ",
      "name": "Goalanda",
      "phone": "01713373601"
    },
    {
      "id": 180,
      "district_id": 14,
      "bn_name": "গোসাইরহাট",
      "name": "Gosairhat",
      "phone": "01713373612"
    },
    {
      "id": 181,
      "district_id": 14,
      "bn_name": "ভেদরগঞ্জ",
      "name": "Vederganj",
      "phone": "01713373613"
    },
    {
      "id": 182,
      "district_id": 14,
      "bn_name": "দামুদ্দা",
      "name": "Damudda",
      "phone": "01713373614"
    },
    {
      "id": 183,
      "district_id": 14,
      "bn_name": "জাজিরা",
      "name": "Jajira",
      "phone": "01713373615"
    },
    {
      "id": 184,
      "district_id": 14,
      "bn_name": "নড়িয়া",
      "name": "Naria",
      "phone": "01713373617"
    },
    {
      "id": 185,
      "district_id": 14,
      "bn_name": "পালং",
      "name": "Palang",
      "phone": "01713373617"
    },
    {
      "id": 186,
      "district_id": 14,
      "bn_name": "শাখিপুর",
      "name": "Shakhipur",
      "phone": "01713373617"
    },
    {
      "id": 187,
      "division_id": 43,
      "bn_name": "রাউজান",
      "name": "Raozan",
      "phone": "01713373739"
    },
    {
      "id": 188,
      "division_id": 43,
      "bn_name": "হাটহাজারী",
      "name": "Hathazari",
      "phone": "01713373740"
    },
    {
      "id": 189,
      "division_id": 43,
      "bn_name": "ফটিকছড়ি",
      "name": "Fatikchhari",
      "phone": "01713373641"
    },
    {
      "id": 190,
      "division_id": 43,
      "bn_name": "রাঙ্গুনিয়া",
      "name": "Rangunia",
      "phone": "01713373642"
    },
    {
      "id": 191,
      "division_id": 43,
      "bn_name": "পটিয়া",
      "name": "Patia",
      "phone": "01713373743"
    },
    {
      "id": 192,
      "division_id": 43,
      "bn_name": "মীরসরাই",
      "name": "Mirsarai",
      "phone": "01713373644"
    },
    {
      "id": 193,
      "division_id": 43,
      "bn_name": "সীতাকুন্ডু",
      "name": "Sitakundu",
      "phone": "01713373745"
    },
    {
      "id": 194,
      "division_id": 43,
      "bn_name": "আনোয়ারা",
      "name": "Anwara",
      "phone": "01713373748"
    },
    {
      "id": 195,
      "division_id": 43,
      "bn_name": "বোয়ালখালী",
      "name": "Boalkhali",
      "phone": "01713373748"
    },
    {
      "id": 196,
      "division_id": 43,
      "bn_name": "বাশখালী",
      "name": "Bashkhali",
      "phone": "01713373748"
    },
    {
      "id": 197,
      "division_id": 43,
      "bn_name": "সাতকানিয়া",
      "name": "Satkania",
      "phone": "01713373749"
    },
    {
      "id": 198,
      "division_id": 43,
      "bn_name": "লোহাগড়",
      "name": "Lohagarh",
      "phone": "01713373750"
    },
    {
      "id": 199,
      "division_id": 43,
      "bn_name": "চাঁদনাইশ",
      "name": "Chandnaish",
      "phone": "01713373751"
    },
    {
      "id": 200,
      "district_id": 45,
      "bn_name": "স্যানদীপ",
      "name": "Sandeep",
      "phone": "01713373752"
    },
    {
      "id": 201,
      "district_id": 45,
      "bn_name": "কক্সবাজার",
      "name": "Cox’s Bazar",
      "phone": "0171337373"
    },
    {
      "id": 202,
      "district_id": 45,
      "bn_name": "রামু",
      "name": "Ramu",
      "phone": "0171337364"
    },
    {
      "id": 203,
      "district_id": 45,
      "bn_name": "উখিয়া",
      "name": "Ukhia",
      "phone": "0171337375"
    },
    {
      "id": 204,
      "district_id": 45,
      "bn_name": "টেকনাফ",
      "name": "Teknaf",
      "phone": "017133736"
    },
    {
      "id": 205,
      "district_id": 45,
      "bn_name": "চকোরিয়া",
      "name": "Chakoria",
      "phone": "017133736"
    },
    {
      "id": 206,
      "district_id": 45,
      "bn_name": "কুতুবদিয়া",
      "name": "Kutubdia",
      "phone": "017133736"
    },
    {
      "id": 207,
      "district_id": 45,
      "bn_name": "মহেশখালী",
      "name": "Maheshkhali",
      "phone": "0171337369"
    },
    {
      "id": 208,
      "district_id": 45,
      "bn_name": "পেকুয়া",
      "name": "Pekua",
      "phone": "01713373670"
    },
    {
      "id": 209,
      "district_id": 44,
      "bn_name": "কোতোয়ালী কুমিল্লা",
      "name": "Kotwali Comilla",
      "phone": "0171337375"
    },
    {
      "id": 210,
      "district_id": 44,
      "bn_name": "চৌদ্দগ্রাম",
      "name": "Chauddagram",
      "phone": "017133736"
    },
    {
      "id": 211,
      "district_id": 44,
      "bn_name": "দেবিদ্দার",
      "name": "Debiddar",
      "phone": "017133736"
    },
    {
      "id": 212,
      "district_id": 44,
      "bn_name": "হোমনা",
      "name": "Homna",
      "phone": "017133736"
    },
    {
      "id": 213,
      "district_id": 44,
      "bn_name": "লাকসাম",
      "name": "Laksam",
      "phone": "0171337369"
    },
    {
      "id": 214,
      "district_id": 44,
      "bn_name": "দাউদকান্ডি",
      "name": "Daudkandi",
      "phone": "01713373690"
    },
    {
      "id": 215,
      "district_id": 44,
      "bn_name": "বুড়িচং",
      "name": "Burichang",
      "phone": "01713373691"
    },
    {
      "id": 216,
      "district_id": 44,
      "bn_name": "চান্দিনা",
      "name": "Chandina",
      "phone": "01713373692"
    },
    {
      "id": 217,
      "district_id": 44,
      "bn_name": "বড়ুড়া",
      "name": "Barura",
      "phone": "01713373693"
    },
    {
      "id": 218,
      "district_id": 44,
      "bn_name": "লঙ্গলকোট",
      "name": "Langalkot",
      "phone": "01713373694"
    },
    {
      "id": 219,
      "district_id": 44,
      "bn_name": "মুরাদনগর",
      "name": "Muradnagar",
      "phone": "01713373695"
    },
    {
      "id": 220,
      "district_id": 44,
      "bn_name": "ব্রাহ্মণপাড়া",
      "name": "Brahmanpara",
      "phone": "01713373698"
    },
    {
      "id": 221,
      "district_id": 44,
      "bn_name": "মেঘনা",
      "name": "Meghna",
      "phone": "01713373698"
    },
    {
      "id": 222,
      "district_id": 44,
      "bn_name": "মনোহরগঞ্জ",
      "name": "Manoharganj",
      "phone": "01713373698"
    },
    {
      "id": 223,
      "district_id": 44,
      "bn_name": "তিতাস",
      "name": "Titas",
      "phone": "01713373799"
    },
    {
      "id": 224,
      "district_id": 44,
      "bn_name": "সদর সাউথ কুমিল্লা",
      "name": "Sadar South Comilla",
      "phone": "01713373600"
    },
    {
      "id": 225,
      "district_id": 42,
      "bn_name": "চাঁদপুর",
      "name": "Chandpur",
      "phone": "01713373612"
    },
    {
      "id": 226,
      "district_id": 42,
      "bn_name": "হাজীগঞ্জ",
      "name": "Hajiganj",
      "phone": "01713373613"
    },
    {
      "id": 227,
      "district_id": 42,
      "bn_name": "মিয়ানস",
      "name": "Miyans",
      "phone": "01713373614"
    },
    {
      "id": 228,
      "district_id": 42,
      "bn_name": "মিয়ানস আসর",
      "name": "Miyans Asar",
      "phone": "01713373614"
    },
    {
      "id": 229,
      "district_id": 42,
      "bn_name": "মিয়ানস সাউথ",
      "name": "Miyans South",
      "phone": "01713373615"
    },
    {
      "id": 230,
      "district_id": 42,
      "bn_name": "শাহরাস্তি",
      "name": "Shaharasti",
      "phone": "01713373617"
    },
    {
      "id": 231,
      "district_id": 42,
      "bn_name": "কচুয়া",
      "name": "Kachua",
      "phone": "01713373617"
    },
    {
      "id": 232,
      "district_id": 42,
      "bn_name": "ফরিদগঞ্জ",
      "name": "Faridganj",
      "phone": "01713373617"
    },
    {
      "id": 233,
      "district_id": 42,
      "bn_name": "হাইমচর",
      "name": "Haimchar",
      "phone": "01713373619"
    },
    {
      "id": 234,
      "district_id": 42,
      "bn_name": "ব্রাহ্মণবাড়িয়া সদর",
      "name": "Brahmanbaria Sadar",
      "phone": "01713373630"
    },
    {
      "id": 235,
      "district_id": 42,
      "bn_name": "সরাইল",
      "name": "Sarail",
      "phone": "01713373731"
    },
    {
      "id": 236,
      "district_id": 42,
      "bn_name": "আশুগঞ্জ",
      "name": "Ashuganj",
      "phone": "01713373632"
    },
    {
      "id": 237,
      "district_id": 42,
      "bn_name": "নাসিরনগর",
      "name": "Nasirnagar",
      "phone": "01713373633"
    },
    {
      "id": 238,
      "district_id": 42,
      "bn_name": "নবীনগর",
      "name": "Nabinagar",
      "phone": "01713373734"
    },
    {
      "id": 239,
      "district_id": 42,
      "bn_name": "বাঞ্ছারামপুর",
      "name": "Bancharampur",
      "phone": "01713373635"
    },
    {
      "id": 240,
      "district_id": 42,
      "bn_name": "কসবা",
      "name": "Kasba",
      "phone": "01713373736"
    },
    {
      "id": 241,
      "district_id": 42,
      "bn_name": "আখাউরা",
      "name": "Akhaura",
      "phone": "01713373736"
    },
    {
      "id": 242,
      "district_id": 49,
      "bn_name": "সুধারাম, নোয়াখালী",
      "name": "Sudharam, Noakhali",
      "phone": "01713373647"
    },
    {
      "id": 243,
      "district_id": 49,
      "bn_name": "বেগমগঞ্জ",
      "name": "Begumganj",
      "phone": "01713373749"
    },
    {
      "id": 244,
      "district_id": 49,
      "bn_name": "সেনবাগ",
      "name": "Senbagh",
      "phone": "01713373750"
    },
    {
      "id": 245,
      "district_id": 49,
      "bn_name": "সোনাইমুড়ি",
      "name": "Sonaimuri",
      "phone": "01713373751"
    },
    {
      "id": 246,
      "district_id": 49,
      "bn_name": "কোম্পানীগঞ্জ",
      "name": "Companiganj",
      "phone": "01713373652"
    },
    {
      "id": 247,
      "district_id": 49,
      "bn_name": "চাটখিল",
      "name": "Chatkhil",
      "phone": "01713373753"
    },
    {
      "id": 248,
      "district_id": 49,
      "bn_name": "হাটিয়া",
      "name": "Hatia",
      "phone": "01713373754"
    },
    {
      "id": 249,
      "district_id": 49,
      "bn_name": "চরজ্বার",
      "name": "Charjabbar",
      "phone": "01713373755"
    },
    {
      "id": 250,
      "district_id": 48,
      "bn_name": "লক্ষীপুর",
      "name": "Laxmipur",
      "phone": "0171337375"
    },
    {
      "id": 251,
      "district_id": 48,
      "bn_name": "রায়পুরা",
      "name": "Raipura",
      "phone": "017133736"
    },
    {
      "id": 252,
      "district_id": 48,
      "bn_name": "রামগঞ্জ",
      "name": "Ramganj",
      "phone": "017133736"
    },
    {
      "id": 253,
      "district_id": 48,
      "bn_name": "রামগতি",
      "name": "Ramgati",
      "phone": "017133736"
    },
    {
      "id": 254,
      "district_id": 46,
      "bn_name": "ফেনী",
      "name": "Feni",
      "phone": "017133736"
    },
    {
      "id": 255,
      "district_id": 46,
      "bn_name": "সোনাগাজী",
      "name": "Sonagazi",
      "phone": "0171337369"
    },
    {
      "id": 256,
      "district_id": 46,
      "bn_name": "ফুলগাজী",
      "name": "Fulgazi",
      "phone": "0171337360"
    },
    {
      "id": 257,
      "district_id": 46,
      "bn_name": "পরশুরাম",
      "name": "Parashuram",
      "phone": "0171337361"
    },
    {
      "id": 258,
      "district_id": 46,
      "bn_name": "চগলনাইয়া",
      "name": "Chagalnaiya",
      "phone": "0171337362"
    },
    {
      "id": 259,
      "district_id": 46,
      "bn_name": "দাগনভূইয়া",
      "name": "Daganbhuiyan",
      "phone": "0171337373"
    },
    {
      "id": 260,
      "division_id": 24,
      "bn_name": "পাবা",
      "name": "Paba",
      "phone": "01713373600"
    },
    {
      "id": 261,
      "division_id": 24,
      "bn_name": "গুদাগাড়ী",
      "name": "Gudagari",
      "phone": "01713373601"
    },
    {
      "id": 262,
      "division_id": 24,
      "bn_name": "তানুর",
      "name": "Tanar",
      "phone": "01713373602"
    },
    {
      "id": 263,
      "division_id": 24,
      "bn_name": "মোহনপুর",
      "name": "Mohanpur",
      "phone": "01713373603"
    },
    {
      "id": 264,
      "division_id": 24,
      "bn_name": "পুঠিয়া",
      "name": "Puthia",
      "phone": "01713373604"
    },
    {
      "id": 265,
      "division_id": 24,
      "bn_name": "বাগমারা",
      "name": "Bagmara",
      "phone": "01713373605"
    },
    {
      "id": 266,
      "division_id": 24,
      "bn_name": "দুর্গাপুর",
      "name": "Durgapur",
      "phone": "01713373606"
    },
    {
      "id": 267,
      "division_id": 24,
      "bn_name": "চারঘাট",
      "name": "Charghat",
      "phone": "01713373606"
    },
    {
      "id": 268,
      "division_id": 24,
      "bn_name": "বাঘা",
      "name": "Bagha",
      "phone": "01713373606"
    },
    {
      "id": 269,
      "district_id": 22,
      "bn_name": "চাঁপাই নবাবগঞ্জ",
      "name": "Chapai Nawabganj",
      "phone": "01713373619"
    },
    {
      "id": 270,
      "district_id": 22,
      "bn_name": "শিবগঞ্জ",
      "name": "Shibganj",
      "phone": "01713373620"
    },
    {
      "id": 271,
      "district_id": 22,
      "bn_name": "গোমস্তাপুর",
      "name": "Gomstapur",
      "phone": "01713373621"
    },
    {
      "id": 272,
      "district_id": 22,
      "bn_name": "নাচোল",
      "name": "Nachol",
      "phone": "01713373622"
    },
    {
      "id": 273,
      "district_id": 22,
      "bn_name": "ভোলাহাট",
      "name": "Bholahat",
      "phone": "01713373623"
    },
    {
      "id": 274,
      "district_id": 20,
      "bn_name": "নওগাঁ",
      "name": "Naogaon",
      "phone": "01713373736"
    },
    {
      "id": 275,
      "district_id": 20,
      "bn_name": "রায়ানগর",
      "name": "Rayanagar",
      "phone": "01713373736"
    },
    {
      "id": 276,
      "district_id": 20,
      "bn_name": "আত্রাই",
      "name": "Atrai",
      "phone": "01713373636"
    },
    {
      "id": 277,
      "district_id": 20,
      "bn_name": "ধামরাই",
      "name": "Dhamrai",
      "phone": "01713373639"
    },
    {
      "id": 278,
      "district_id": 20,
      "bn_name": "বুড়ালগাছি",
      "name": "Budalgachhi",
      "phone": "01713373740"
    },
    {
      "id": 279,
      "district_id": 20,
      "bn_name": "মহাদেবপুর",
      "name": "Mahadevpur",
      "phone": "01713373641"
    },
    {
      "id": 280,
      "district_id": 20,
      "bn_name": "পত্নীতলা",
      "name": "Patnitala",
      "phone": "01713373642"
    },
    {
      "id": 281,
      "district_id": 20,
      "bn_name": "নিয়ামতপুর",
      "name": "Niamatpur",
      "phone": "01713373743"
    },
    {
      "id": 282,
      "district_id": 20,
      "bn_name": "মান্দা",
      "name": "Manda",
      "phone": "01713373644"
    },
    {
      "id": 283,
      "district_id": 20,
      "bn_name": "সাপাহার",
      "name": "Sapahar",
      "phone": "01713373745"
    },
    {
      "id": 284,
      "district_id": 20,
      "bn_name": "পারশা",
      "name": "Parsha",
      "phone": "01713373748"
    },
    {
      "id": 285,
      "district_id": 21,
      "bn_name": "নাটোর",
      "name": "Natore",
      "phone": "01713373758"
    },
    {
      "id": 286,
      "district_id": 21,
      "bn_name": "সিংড়া",
      "name": "Singra",
      "phone": "01713373758"
    },
    {
      "id": 287,
      "district_id": 21,
      "bn_name": "বাঘাতিপাড়া",
      "name": "Baghatipara",
      "phone": "01713373759"
    },
    {
      "id": 288,
      "district_id": 21,
      "bn_name": "গুরুদাসপুর",
      "name": "Gurudaspur",
      "phone": "0171337360"
    },
    {
      "id": 289,
      "district_id": 21,
      "bn_name": "লালপুর",
      "name": "Lalpur",
      "phone": "0171337361"
    },
    {
      "id": 290,
      "district_id": 21,
      "bn_name": "বড়িগ্রাম",
      "name": "Borigram",
      "phone": "0171337362"
    },
    {
      "id": 291,
      "district_id": 21,
      "bn_name": "নলডাঙ্গা",
      "name": "Naldanga",
      "phone": "0171337373"
    },
    {
      "id": 292,
      "district_id": 32,
      "bn_name": "কোতোয়ালী, রংপুর",
      "name": "Kotwali, Rangpur",
      "phone": "0171337364"
    },
    {
      "id": 293,
      "district_id": 32,
      "bn_name": "গঙ্গাচুড়া",
      "name": "Gangachura",
      "phone": "0171337375"
    },
    {
      "id": 294,
      "district_id": 32,
      "bn_name": "ভোদারগঞ্জ",
      "name": "Bhodarganj",
      "phone": "017133736"
    },
    {
      "id": 295,
      "district_id": 32,
      "bn_name": "তারাগঞ্জ",
      "name": "Taraganj",
      "phone": "017133736"
    },
    {
      "id": 296,
      "district_id": 32,
      "bn_name": "মিঠাপুকুর",
      "name": "Mithapukur",
      "phone": "017133736"
    },
    {
      "id": 297,
      "district_id": 32,
      "bn_name": "পীরগাছা",
      "name": "Pirgachha",
      "phone": "0171337369"
    },
    {
      "id": 298,
      "district_id": 32,
      "bn_name": "কাউনিয়া",
      "name": "Kaunia",
      "phone": "0171337360"
    },
    {
      "id": 299,
      "district_id": 32,
      "bn_name": "পীরগঞ্জ",
      "name": "Pirganj",
      "phone": "0171337361"
    },
    {
      "id": 300,
      "district_id": 27,
      "bn_name": "গাইবান্ধা",
      "name": "Gaibandha",
      "phone": "01713373692"
    },
    {
      "id": 301,
      "district_id": 27,
      "bn_name": "সাদুল্লাপুর",
      "name": "Sadullapur",
      "phone": "01713373693"
    },
    {
      "id": 302,
      "district_id": 27,
      "bn_name": "সুন্দরগঞ্জ",
      "name": "Sundarganj",
      "phone": "01713373694"
    },
    {
      "id": 303,
      "district_id": 27,
      "bn_name": "পলাশবাড়ি",
      "name": "Palashbari",
      "phone": "01713373695"
    },
    {
      "id": 304,
      "district_id": 27,
      "bn_name": "গোবিন্দগঞ্জ",
      "name": "Gobindganj",
      "phone": "01713373698"
    },
    {
      "id": 305,
      "district_id": 27,
      "bn_name": "সাতঘাটা",
      "name": "Satghata",
      "phone": "01713373698"
    },
    {
      "id": 306,
      "district_id": 27,
      "bn_name": "ফুলছড়ি",
      "name": "Fulchhari",
      "phone": "01713373698"
    },
    {
      "id": 307,
      "district_id": 30,
      "bn_name": "নীলফামারী",
      "name": "Nilphamari",
      "phone": "01713373909"
    },
    {
      "id": 308,
      "district_id": 30,
      "bn_name": "সৈয়দপুর",
      "name": "Syedpur",
      "phone": "01713373910"
    },
    {
      "id": 309,
      "district_id": 30,
      "bn_name": "জলঢাকা",
      "name": "Jaldhaka",
      "phone": "01713373911"
    },
    {
      "id": 310,
      "district_id": 30,
      "bn_name": "কিশোরগঞ্জ (নীলফামারী)",
      "name": "Kishoreganj (Nilphamari)",
      "phone": "01713373912"
    },
    {
      "id": 311,
      "district_id": 30,
      "bn_name": "ডোমার",
      "name": "Domar",
      "phone": "01713373913"
    },
    {
      "id": 312,
      "district_id": 30,
      "bn_name": "ডিমলা",
      "name": "Dimla",
      "phone": "01713373914"
    },
    {
      "id": 313,
      "district_id": 30,
      "bn_name": "সৈয়দপুর পুলিশ আউটপোস্ট",
      "name": "Syedpur Police Outpost",
      "phone": "01713373915"
    },
    {
      "id": 314,
      "district_id": 28,
      "bn_name": "কুড়িগ্রাম",
      "name": "Kurigram",
      "phone": "01713373926"
    },
    {
      "id": 315,
      "district_id": 28,
      "bn_name": "রাজারহাট",
      "name": "Rajarhat",
      "phone": "01713373926"
    },
    {
      "id": 316,
      "district_id": 28,
      "bn_name": "ফুলবাড়ি",
      "name": "Phulbari",
      "phone": "01713373926"
    },
    {
      "id": 317,
      "district_id": 28,
      "bn_name": "নাগেশ্বর",
      "name": "Nageshwar",
      "phone": "01713373929"
    },
    {
      "id": 318,
      "district_id": 28,
      "bn_name": "বুড়ুন্গামারী",
      "name": "Burungamari",
      "phone": "01713373930"
    },
    {
      "id": 319,
      "district_id": 28,
      "bn_name": "উলিপুর",
      "name": "Ulipur",
      "phone": "01713373931"
    },
    {
      "id": 320,
      "district_id": 28,
      "bn_name": "চিলমারি",
      "name": "Chilmari",
      "phone": "01713373932"
    },
    {
      "id": 321,
      "district_id": 28,
      "bn_name": "রৌমারি",
      "name": "Roumari",
      "phone": "01713373933"
    },
    {
      "id": 322,
      "district_id": 28,
      "bn_name": "রাজিবপুর",
      "name": "Rajibpur",
      "phone": "01713373934"
    },
    {
      "id": 323,
      "district_id": 28,
      "bn_name": "ডুসমারা",
      "name": "Dusmara",
      "phone": "01713373935"
    },
    {
      "id": 324,
      "district_id": 28,
      "bn_name": "কোচাকাটা",
      "name": "Kochakata",
      "phone": "01713373936"
    },
    {
      "id": 325,
      "district_id": 29,
      "bn_name": "লালমনিরহাট",
      "name": "Lalmonirhat",
      "phone": "01713373948"
    },
    {
      "id": 326,
      "district_id": 29,
      "bn_name": "আদিতমারী",
      "name": "Aditmari",
      "phone": "01713373948"
    },
    {
      "id": 327,
      "district_id": 29,
      "bn_name": "কালীগঞ্জ",
      "name": "Kaliganj",
      "phone": "01713373948"
    },
    {
      "id": 328,
      "district_id": 29,
      "bn_name": "হাতিবান্দা",
      "name": "Hatibanda",
      "phone": "01713373949"
    },
    {
      "id": 329,
      "district_id": 29,
      "bn_name": "পাটগ্রাম",
      "name": "Patgram",
      "phone": "01713373950"
    },
    {
      "id": 330,
      "district_id": 26,
      "bn_name": "কোতোয়ালি দিনাজপুর",
      "name": "Kotwali Dinajpur",
      "phone": "01713373983"
    },
    {
      "id": 331,
      "district_id": 26,
      "bn_name": "চিরি পোর্ট",
      "name": "Chiri Port",
      "phone": "01713373974"
    },
    {
      "id": 332,
      "district_id": 26,
      "bn_name": "রিয়েল",
      "name": "Real",
      "phone": "01713373985"
    },
    {
      "id": 333,
      "district_id": 26,
      "bn_name": "পার্বতীপুর",
      "name": "Parbatipur",
      "phone": "0171337396"
    },
    {
      "id": 334,
      "district_id": 26,
      "bn_name": "বীরগঞ্জ",
      "name": "Birganj",
      "phone": "0171337396"
    },
    {
      "id": 335,
      "district_id": 26,
      "bn_name": "বোচাগঞ্জ",
      "name": "Bochaganj",
      "phone": "0171337396"
    },
    {
      "id": 336,
      "district_id": 26,
      "bn_name": "কাহারল",
      "name": "Kaharol",
      "phone": "01713373969"
    },
    {
      "id": 337,
      "district_id": 26,
      "bn_name": "খানসামা",
      "name": "Khansama",
      "phone": "01713373970"
    },
    {
      "id": 338,
      "district_id": 26,
      "bn_name": "ফুলবাড়ি",
      "name": "Phulbari",
      "phone": "01713373971"
    },
    {
      "id": 339,
      "district_id": 26,
      "bn_name": "বিরামপুর",
      "name": "Birampur",
      "phone": "01713373972"
    },
    {
      "id": 340,
      "district_id": 26,
      "bn_name": "নবাবগঞ্জ (দিনাজপুর)",
      "name": "Nawabganj (Dinajpur)",
      "phone": "01713373963"
    },
    {
      "id": 341,
      "district_id": 26,
      "bn_name": "ঘোড়াঘাট",
      "name": "Ghoraghat",
      "phone": "01713373974"
    },
    {
      "id": 342,
      "district_id": 26,
      "bn_name": "হাকিমপুর",
      "name": "Hakimpur",
      "phone": "01713373985"
    },
    {
      "id": 343,
      "district_id": 33,
      "bn_name": "ঠাকুরগাঁও",
      "name": "Thakurgaon",
      "phone": "01713373975"
    },
    {
      "id": 344,
      "district_id": 33,
      "bn_name": "বালিয়াডাঙ্গী",
      "name": "Baliadangi",
      "phone": "0171337396"
    },
    {
      "id": 345,
      "district_id": 33,
      "bn_name": "রাণী শঙ্কৌল",
      "name": "Rani Sankoul",
      "phone": "0171337396"
    },
    {
      "id": 346,
      "district_id": 33,
      "bn_name": "পীরগঞ্জ",
      "name": "Pirganj",
      "phone": "0171337396"
    },
    {
      "id": 347,
      "district_id": 33,
      "bn_name": "হরিপুর",
      "name": "Haripur",
      "phone": "01713373969"
    },
    {
      "id": 348,
      "district_id": 31,
      "bn_name": "পঞ্চগড়",
      "name": "Panchagarh",
      "phone": "01713373999"
    },
    {
      "id": 349,
      "district_id": 31,
      "bn_name": "বোদা",
      "name": "Boda",
      "phone": "01713374000"
    },
    {
      "id": 350,
      "district_id": 31,
      "bn_name": "আটোয়ারি",
      "name": "Atwari",
      "phone": "01713374001"
    },
    {
      "id": 351,
      "district_id": 31,
      "bn_name": "তেতুলিয়া",
      "name": "Tetulia",
      "phone": "01713374002"
    },
    {
      "id": 352,
      "district_id": 31,
      "bn_name": "দেবীগঞ্জ",
      "name": "Debiganj",
      "phone": "01713374003"
    },
    {
      "id": 353,
      "district_id": 23,
      "bn_name": "পাবনা",
      "name": "Pabna",
      "phone": "01713374018"
    },
    {
      "id": 354,
      "district_id": 23,
      "bn_name": "ঈশ্বরদী",
      "name": "Ishwardi",
      "phone": "01713374018"
    },
    {
      "id": 355,
      "district_id": 23,
      "bn_name": "আটঘরিয়া",
      "name": "Atgharia",
      "phone": "01713374018"
    },
    {
      "id": 356,
      "district_id": 23,
      "bn_name": "চাটমোহর",
      "name": "Chatmohar",
      "phone": "01713374019"
    },
    {
      "id": 357,
      "district_id": 23,
      "bn_name": "ভাঙ্গোরা",
      "name": "Bhangora",
      "phone": "01713374020"
    },
    {
      "id": 358,
      "district_id": 23,
      "bn_name": "ফরিদপুর (পাবনা)",
      "name": "Faridpur (Pabna)",
      "phone": "01713374021"
    },
    {
      "id": 359,
      "district_id": 23,
      "bn_name": "সূর্যনগর",
      "name": "Suryanagar",
      "phone": "01713374022"
    },
    {
      "id": 360,
      "district_id": 23,
      "bn_name": "ফেন্স",
      "name": "Fence",
      "phone": "01713374023"
    },
    {
      "id": 361,
      "district_id": 23,
      "bn_name": "সত্য",
      "name": "Sathya",
      "phone": "01713374024"
    },
    {
      "id": 362,
      "district_id": 23,
      "bn_name": "আটাইকুলা",
      "name": "Ataikula",
      "phone": "01713374025"
    },
    {
      "id": 363,
      "district_id": 25,
      "bn_name": "সিরাজগঞ্জ",
      "name": "Sirajganj",
      "phone": "01713374037"
    },
    {
      "id": 364,
      "district_id": 25,
      "bn_name": "শাহজাদপুর",
      "name": "Shahjadpur",
      "phone": "01713374039"
    },
    {
      "id": 365,
      "district_id": 25,
      "bn_name": "উল্লাপাড়া",
      "name": "Ullapara",
      "phone": "01713374040"
    },
    {
      "id": 366,
      "district_id": 25,
      "bn_name": "চৌহালি",
      "name": "Chowhali",
      "phone": "01713374041"
    },
    {
      "id": 367,
      "district_id": 25,
      "bn_name": "তাড়াস",
      "name": "Taras",
      "phone": "01713374042"
    },
    {
      "id": 368,
      "district_id": 25,
      "bn_name": "কাজীপুর",
      "name": "Kazipur",
      "phone": "01713374043"
    },
    {
      "id": 369,
      "district_id": 25,
      "bn_name": "কামারখন্দ",
      "name": "Kamarkhand",
      "phone": "01713374044"
    },
    {
      "id": 370,
      "district_id": 25,
      "bn_name": "রায়গঞ্জ",
      "name": "Raiganj",
      "phone": "01713374045"
    },
    {
      "id": 371,
      "district_id": 25,
      "bn_name": "বেলকুচি",
      "name": "Belkuchi",
      "phone": "01713374048"
    },
    {
      "id": 372,
      "district_id": 25,
      "bn_name": "জমুনা ব্রিজ পশ্চিম",
      "name": "Jamuna Bridge West",
      "phone": "01713374048"
    },
    {
      "id": 373,
      "district_id": 25,
      "bn_name": "সালঙ্গা",
      "name": "Salanga",
      "phone": "01713374048"
    },
    {
      "id": 374,
      "district_id": 25,
      "bn_name": "ইনায়েতপুর",
      "name": "Enayetpur",
      "phone": "01713374049"
    },
    {
      "id": 375,
      "district_id": 18,
      "bn_name": "বগুড়া",
      "name": "Bogra",
      "phone": "01713374071"
    },
    {
      "id": 376,
      "district_id": 18,
      "bn_name": "শিবগঞ্জ",
      "name": "Shibganj",
      "phone": "01713374072"
    },
    {
      "id": 377,
      "district_id": 18,
      "bn_name": "সোনাতলা",
      "name": "Sonatala",
      "phone": "01713374063"
    },
    {
      "id": 378,
      "district_id": 18,
      "bn_name": "গাবতলী",
      "name": "Gabtali",
      "phone": "01713374064"
    },
    {
      "id": 379,
      "district_id": 18,
      "bn_name": "সারিয়াকান্দি",
      "name": "Sariakandi",
      "phone": "01713374065"
    },
    {
      "id": 380,
      "district_id": 18,
      "bn_name": "আদমদিঘি",
      "name": "Adamdighi",
      "phone": "0171337406"
    },
    {
      "id": 381,
      "district_id": 18,
      "bn_name": "ধুপচাচিয়া",
      "name": "Dhupchachia",
      "phone": "0171337406"
    },
    {
      "id": 382,
      "district_id": 18,
      "bn_name": "কাহালু",
      "name": "Kahalu",
      "phone": "0171337406"
    },
    {
      "id": 383,
      "district_id": 18,
      "bn_name": "শেরপুর",
      "name": "Sherpur",
      "phone": "01713374069"
    },
    {
      "id": 384,
      "district_id": 18,
      "bn_name": "ধুনট",
      "name": "Dhunat",
      "phone": "01713374060"
    },
    {
      "id": 385,
      "district_id": 18,
      "bn_name": "নন্দিগ্রাম",
      "name": "Nandigram",
      "phone": "01713374071"
    },
    {
      "id": 386,
      "district_id": 18,
      "bn_name": "শাহজাহানপুর",
      "name": "Shahjahanpur",
      "phone": "01713374072"
    },
    {
      "id": 387,
      "district_id": 19,
      "bn_name": "জয়পুরহাট",
      "name": "Joypurhat",
      "phone": "01713374072"
    },
    {
      "id": 388,
      "district_id": 19,
      "bn_name": "কালাই",
      "name": "Kalai",
      "phone": "01713374063"
    },
    {
      "id": 389,
      "district_id": 19,
      "bn_name": "ক্ষেতলাল",
      "name": "Khetlal",
      "phone": "01713374064"
    },
    {
      "id": 390,
      "district_id": 19,
      "bn_name": "আক্কেলপুর",
      "name": "Akkelpur",
      "phone": "01713374085"
    },
    {
      "id": 391,
      "district_id": 19,
      "bn_name": "পাঁচবিবি",
      "name": "Pachbibi",
      "phone": "0171337406"
    },
    {
      "id": 392,
      "division_id": 59,
      "bn_name": "ফুলতলা",
      "name": "Fultala",
      "phone": "01713374103"
    },
    {
      "id": 393,
      "division_id": 59,
      "bn_name": "দিঘলিয়া",
      "name": "Dighalia",
      "phone": "01713374104"
    },
    {
      "id": 394,
      "division_id": 59,
      "bn_name": "পাইকগাছা",
      "name": "Paikgachha",
      "phone": "01713374105"
    },
    {
      "id": 395,
      "division_id": 59,
      "bn_name": "বাটিয়াঘাটা",
      "name": "Batiaghata",
      "phone": "01713374107"
    },
    {
      "id": 396,
      "division_id": 59,
      "bn_name": "ডুমুরিয়া",
      "name": "Dumuria",
      "phone": "01713374107"
    },
    {
      "id": 397,
      "division_id": 59,
      "bn_name": "তেরখাদা",
      "name": "Terkhada",
      "phone": "01713374106"
    },
    {
      "id": 398,
      "division_id": 59,
      "bn_name": "রূপসা",
      "name": "Rupsa",
      "phone": "01713374109"
    },
    {
      "id": 399,
      "division_id": 59,
      "bn_name": "ডাকপ",
      "name": "Dakop",
      "phone": "01713374110"
    },
    {
      "id": 400,
      "division_id": 59,
      "bn_name": "কোইরা",
      "name": "Koira",
      "phone": "01713374111"
    },
    {
      "id": 401,
      "district_id": 55,
      "bn_name": "বাগেরহাট",
      "name": "Bagerhat",
      "phone": "01713374122"
    },
    {
      "id": 402,
      "district_id": 55,
      "bn_name": "ফকিরহাট",
      "name": "Fakirhat",
      "phone": "01713374123"
    },
    {
      "id": 403,
      "district_id": 55,
      "bn_name": "মোল্লারহাট",
      "name": "Mollarhat",
      "phone": "01713374124"
    },
    {
      "id": 404,
      "district_id": 55,
      "bn_name": "চিতলমারি",
      "name": "Chitalmari",
      "phone": "01713374125"
    },
    {
      "id": 405,
      "district_id": 55,
      "bn_name": "কচুয়া",
      "name": "Kachua",
      "phone": "01713374127"
    },
    {
      "id": 406,
      "district_id": 55,
      "bn_name": "মোরলগঞ্জ",
      "name": "Moralganj",
      "phone": "01713374127"
    },
    {
      "id": 407,
      "district_id": 55,
      "bn_name": "শরণখোলা",
      "name": "Sharankhola",
      "phone": "01713374126"
    },
    {
      "id": 408,
      "district_id": 55,
      "bn_name": "মংলা",
      "name": "Mongla",
      "phone": "01713374129"
    },
    {
      "id": 409,
      "district_id": 55,
      "bn_name": "রামপাল",
      "name": "Rampal",
      "phone": "01713374130"
    },
    {
      "id": 410,
      "district_id": 64,
      "bn_name": "সাতক্ষীরা",
      "name": "Satkhira",
      "phone": "01713374141"
    },
    {
      "id": 411,
      "district_id": 64,
      "bn_name": "কলারোয়া",
      "name": "Kalaroa",
      "phone": "01713374142"
    },
    {
      "id": 412,
      "district_id": 64,
      "bn_name": "লক",
      "name": "Lock",
      "phone": "01713374143"
    },
    {
      "id": 413,
      "district_id": 64,
      "bn_name": "কালীগঞ্জ",
      "name": "Kaliganj",
      "phone": "01713374144"
    },
    {
      "id": 414,
      "district_id": 64,
      "bn_name": "শ্যামনগর",
      "name": "Shyamnagar",
      "phone": "01713374145"
    },
    {
      "id": 415,
      "district_id": 64,
      "bn_name": "দেভাটা",
      "name": "Debhata",
      "phone": "01713374146"
    },
    {
      "id": 416,
      "district_id": 64,
      "bn_name": "আশাশুনি",
      "name": "Asashuni",
      "phone": "01713374147"
    },
    {
      "id": 417,
      "district_id": 64,
      "bn_name": "পাটকেলঘাটা",
      "name": "Patkelghata",
      "phone": "01713374146"
    },
    {
      "id": 418,
      "district_id": 57,
      "bn_name": "কোতোয়ালি যশোর",
      "name": "Kotwali Jessore",
      "phone": "01713374171"
    },
    {
      "id": 419,
      "district_id": 57,
      "bn_name": "ঝিকরগাছা",
      "name": "Jhikargachha",
      "phone": "01713374172"
    },
    {
      "id": 420,
      "district_id": 57,
      "bn_name": "শার্শা",
      "name": "Sharsha",
      "phone": "01713374173"
    },
    {
      "id": 421,
      "district_id": 57,
      "bn_name": "চৌগাছা",
      "name": "Chougachha",
      "phone": "01713374174"
    },
    {
      "id": 422,
      "district_id": 57,
      "bn_name": "মনিরামপুর",
      "name": "Monirampur",
      "phone": "01713374175"
    },
    {
      "id": 423,
      "district_id": 57,
      "bn_name": "কেশবপুর",
      "name": "Keshabpur",
      "phone": "0171337418"
    },
    {
      "id": 424,
      "district_id": 57,
      "bn_name": "অভয়নগর",
      "name": "Abhaynagar",
      "phone": "0171337418"
    },
    {
      "id": 425,
      "district_id": 57,
      "bn_name": "বাঘারপাড়া",
      "name": "Bagharpara",
      "phone": "0171337418"
    },
    {
      "id": 426,
      "district_id": 57,
      "bn_name": "বেনাপোল পোর্ট",
      "name": "Benapole Port",
      "phone": "01713374179"
    },
    {
      "id": 427,
      "district_id": 57,
      "bn_name": "বেনাপোল চেক পোস্ট",
      "name": "Benapole Check Post",
      "phone": "01713374170"
    },
    {
      "id": 428,
      "district_id": 61,
      "bn_name": "মাগুরা",
      "name": "Magura",
      "phone": "01713374179"
    },
    {
      "id": 429,
      "district_id": 61,
      "bn_name": "শালিখা",
      "name": "Shalikha",
      "phone": "01713374170"
    },
    {
      "id": 430,
      "district_id": 61,
      "bn_name": "শ্রীপুর",
      "name": "Sreepur",
      "phone": "01713374171"
    },
    {
      "id": 431,
      "district_id": 61,
      "bn_name": "মোহাম্মদপুর",
      "name": "Mohammadpur",
      "phone": "01713374172"
    },
    {
      "id": 432,
      "district_id": 61,
      "bn_name": "ঝিনাইদহ",
      "name": "Jhenaidah",
      "phone": "01713374192"
    },
    {
      "id": 433,
      "district_id": 61,
      "bn_name": "কালীগঞ্জ",
      "name": "Kaliganj",
      "phone": "01713374193"
    },
    {
      "id": 434,
      "district_id": 61,
      "bn_name": "শৈলকুপা",
      "name": "Shailkupa",
      "phone": "01713374194"
    },
    {
      "id": 435,
      "district_id": 61,
      "bn_name": "হরিনাকুন্ডু",
      "name": "Harinakundu",
      "phone": "01713374195"
    },
    {
      "id": 436,
      "district_id": 61,
      "bn_name": "কোটচাঁদপুর",
      "name": "Kotchadpur",
      "phone": "01713374196"
    },
    {
      "id": 437,
      "district_id": 61,
      "bn_name": "মহেশপুর",
      "name": "Maheshpur",
      "phone": "01713374196"
    },
    {
      "id": 438,
      "district_id": 63,
      "bn_name": "নড়াইল",
      "name": "Narail",
      "phone": "01713374207"
    },
    {
      "id": 439,
      "district_id": 63,
      "bn_name": "কালিয়া",
      "name": "Kalia",
      "phone": "01713374207"
    },
    {
      "id": 440,
      "district_id": 63,
      "bn_name": "লোহাগড়া",
      "name": "Lohagarh",
      "phone": "01713374207"
    },
    {
      "id": 441,
      "district_id": 63,
      "bn_name": "নড়াগতি",
      "name": "Naragati",
      "phone": "01713374209"
    },
    {
      "id": 442,
      "district_id": 60,
      "bn_name": "কুষ্টিয়া",
      "name": "Kushtia",
      "phone": "01713374220"
    },
    {
      "id": 443,
      "district_id": 60,
      "bn_name": "খোকসা",
      "name": "Khoksa",
      "phone": "01713374221"
    },
    {
      "id": 444,
      "district_id": 60,
      "bn_name": "কুমারখালি",
      "name": "Kumarkhali",
      "phone": "01713374222"
    },
    {
      "id": 445,
      "district_id": 60,
      "bn_name": "ভেরামারা",
      "name": "Bheramara",
      "phone": "01713374223"
    },
    {
      "id": 446,
      "district_id": 60,
      "bn_name": "দৌলতপুর",
      "name": "Daulatpur",
      "phone": "01713374224"
    },
    {
      "id": 447,
      "district_id": 60,
      "bn_name": "মিরপুর",
      "name": "Mirpur",
      "phone": "01713374225"
    },
    {
      "id": 448,
      "district_id": 60,
      "bn_name": "ইসলামিক ইউনিভার্সিটি",
      "name": "Islamic University",
      "phone": "01713374228"
    },
    {
      "id": 449,
      "district_id": 56,
      "bn_name": "চুয়াডাঙ্গা",
      "name": "Chuadanga",
      "phone": "01713374236"
    },
    {
      "id": 450,
      "district_id": 56,
      "bn_name": "আলমডাঙ্গা",
      "name": "Alamdanga",
      "phone": "01713374237"
    },
    {
      "id": 451,
      "district_id": 56,
      "bn_name": "জীবননগর",
      "name": "Jivannagar",
      "phone": "01713374237"
    },
    {
      "id": 452,
      "district_id": 56,
      "bn_name": "দামুড়হুদা",
      "name": "Damurhuda",
      "phone": "01713374239"
    },
    {
      "id": 453,
      "district_id": 56,
      "bn_name": "মেহেরপুর",
      "name": "Meherpur",
      "phone": "01713374249"
    },
    {
      "id": 454,
      "district_id": 56,
      "bn_name": "গাংনী",
      "name": "Gangni",
      "phone": "01713374250"
    },
    {
      "id": 455,
      "district_id": 56,
      "bn_name": "মুজিবনগর",
      "name": "Mujibnagar",
      "phone": "01713374251"
    },
    {
      "id": 456,
      "division_id": 35,
      "bn_name": "কোতোয়ালি বরিশাল",
      "name": "Kotwali Barisal",
      "phone": "0171337428"
    },
    {
      "id": 457,
      "division_id": 35,
      "bn_name": "হিজলা",
      "name": "Hijla",
      "phone": "0171337428"
    },
    {
      "id": 458,
      "division_id": 35,
      "bn_name": "মেহেদিগঞ্জ",
      "name": "Mehediganj",
      "phone": "01713374279"
    },
    {
      "id": 459,
      "division_id": 35,
      "bn_name": "মুলাদি",
      "name": "Muladi",
      "phone": "01713374260"
    },
    {
      "id": 460,
      "division_id": 35,
      "bn_name": "বাবুগঞ্জ",
      "name": "Babuganj",
      "phone": "01713374271"
    },
    {
      "id": 461,
      "division_id": 35,
      "bn_name": "বাকেরগঞ্জ",
      "name": "Bakerganj",
      "phone": "01713374272"
    },
    {
      "id": 462,
      "division_id": 35,
      "bn_name": "বানারিপাড়া",
      "name": "Banaripara",
      "phone": "01713374273"
    },
    {
      "id": 463,
      "division_id": 35,
      "bn_name": "আগৈলঝাড়া",
      "name": "Agauljhara",
      "phone": "01713374284"
    },
    {
      "id": 464,
      "division_id": 35,
      "bn_name": "গৌরনদী",
      "name": "Gournadi",
      "phone": "01713374275"
    },
    {
      "id": 465,
      "division_id": 35,
      "bn_name": "ওয়াজিরপুর",
      "name": "Wazirpur",
      "phone": "0171337428"
    },
    {
      "id": 466,
      "division_id": 35,
      "bn_name": "ঝালকাঠি",
      "name": "Jhalokati",
      "phone": "0171337428"
    },
    {
      "id": 467,
      "division_id": 35,
      "bn_name": "নলচিঠি",
      "name": "Nalchithi",
      "phone": "0171337428"
    },
    {
      "id": 468,
      "division_id": 35,
      "bn_name": "রাজাপুর",
      "name": "Rajapur",
      "phone": "0171337428"
    },
    {
      "id": 469,
      "division_id": 35,
      "bn_name": "কাঠালিয়া",
      "name": "Kathalia",
      "phone": "01713374279"
    },
    {
      "id": 470,
      "district_id": 36,
      "bn_name": "ভোলা",
      "name": "Bhola",
      "phone": "01713374300"
    },
    {
      "id": 471,
      "district_id": 36,
      "bn_name": "দৌলতখান",
      "name": "Daulatkhan",
      "phone": "01713374301"
    },
    {
      "id": 472,
      "district_id": 36,
      "bn_name": "তাজুমুদ্দিন",
      "name": "Tajumuddin",
      "phone": "01713374302"
    },
    {
      "id": 473,
      "district_id": 36,
      "bn_name": "বোরহানউদ্দিন",
      "name": "Borhanuddin",
      "phone": "01713374303"
    },
    {
      "id": 474,
      "district_id": 36,
      "bn_name": "লালমোহন",
      "name": "Lalmohan",
      "phone": "01713374304"
    },
    {
      "id": 475,
      "district_id": 36,
      "bn_name": "চরফ্যাশন",
      "name": "Char Fashion",
      "phone": "01713374305"
    },
    {
      "id": 476,
      "district_id": 36,
      "bn_name": "মনপুরা",
      "name": "Monpura",
      "phone": "01713374306"
    },
    {
      "id": 477,
      "district_id": 38,
      "bn_name": "পটুয়াখালী",
      "name": "Patuakhali",
      "phone": "01713374318"
    },
    {
      "id": 478,
      "district_id": 38,
      "bn_name": "বাউফল",
      "name": "Baufal",
      "phone": "01713374319"
    },
    {
      "id": 479,
      "district_id": 38,
      "bn_name": "গলাচিপা",
      "name": "Galachipa",
      "phone": "01713374320"
    },
    {
      "id": 480,
      "district_id": 38,
      "bn_name": "দশমিনা",
      "name": "Dashmina",
      "phone": "01713374321"
    },
    {
      "id": 481,
      "district_id": 38,
      "bn_name": "দুমকি",
      "name": "Dumki",
      "phone": "01713374322"
    },
    {
      "id": 482,
      "district_id": 38,
      "bn_name": "কলাপারা",
      "name": "Kalapara",
      "phone": "01713374323"
    },
    {
      "id": 483,
      "district_id": 38,
      "bn_name": "মির্জাগঞ্জ",
      "name": "Mirzaganj",
      "phone": "01713374324"
    },
    {
      "id": 484,
      "district_id": 38,
      "bn_name": "রাঙ্গাবালী",
      "name": "Rangabali",
      "phone": "01713374325"
    },
    {
      "id": 485,
      "district_id": 39,
      "bn_name": "পিরোজপুর",
      "name": "Pirojpur",
      "phone": "01713374337"
    },
    {
      "id": 486,
      "district_id": 39,
      "bn_name": "ভাণ্ডারিয়া",
      "name": "Bhandaria",
      "phone": "01713374337"
    },
    {
      "id": 487,
      "district_id": 39,
      "bn_name": "নেছারাবাদ",
      "name": "Nesarabad",
      "phone": "01713374337"
    },
    {
      "id": 488,
      "district_id": 39,
      "bn_name": "কাউখালি",
      "name": "Kaukhali",
      "phone": "01713374339"
    },
    {
      "id": 489,
      "district_id": 39,
      "bn_name": "নাজিরপুর",
      "name": "Nazirpur",
      "phone": "01713374340"
    },
    {
      "id": 490,
      "district_id": 39,
      "bn_name": "জিয়া নগর",
      "name": "Zia Nagar",
      "phone": "01713374341"
    },
    {
      "id": 491,
      "district_id": 39,
      "bn_name": "মাথবাড়িয়া",
      "name": "Mathbaria",
      "phone": "01713374342"
    },
    {
      "id": 492,
      "district_id": 39,
      "bn_name": "বরগুনা",
      "name": "Barguna",
      "phone": "01713374353"
    },
    {
      "id": 493,
      "district_id": 39,
      "bn_name": "আমতলী",
      "name": "Amtali",
      "phone": "01713374354"
    },
    {
      "id": 494,
      "district_id": 39,
      "bn_name": "পাথরঘাটা",
      "name": "Patharghata",
      "phone": "01713374355"
    },
    {
      "id": 495,
      "district_id": 39,
      "bn_name": "বেতাগি",
      "name": "Betagi",
      "phone": "01713374356"
    },
    {
      "id": 496,
      "district_id": 39,
      "bn_name": "বামনা",
      "name": "Bamna",
      "phone": "01713374356"
    },
    {
      "id": 497,
      "district_id": 39,
      "bn_name": "তালতলি",
      "name": "Taltali",
      "phone": "01713374356"
    },
    {
      "id": 498,
      "division_id": 54,
      "bn_name": "সিলেট কোটোয়ালী",
      "name": "Kotwali (Sylhet)",
      "phone": "01713374375"
    },
    {
      "id": 499,
      "division_id": 54,
      "bn_name": "বালাগঞ্জ",
      "name": "Balaganj",
      "phone": "0171337436"
    },
    {
      "id": 500,
      "division_id": 54,
      "bn_name": "জয়ন্তপুর",
      "name": "Jaintapur",
      "phone": "0171337436"
    },
    {
      "id": 501,
      "division_id": 54,
      "bn_name": "গোয়াইনঘাট",
      "name": "Gowainghat",
      "phone": "0171337436"
    },
    {
      "id": 502,
      "division_id": 54,
      "bn_name": "কানাইঘাট",
      "name": "Kanaighat",
      "phone": "01713374369"
    },
    {
      "id": 503,
      "division_id": 54,
      "bn_name": "কোম্পানিগঞ্জ",
      "name": "Companiganj",
      "phone": "01713374360"
    },
    {
      "id": 504,
      "division_id": 54,
      "bn_name": "জাকিগঞ্জ",
      "name": "Zakiganj",
      "phone": "01713374361"
    },
    {
      "id": 505,
      "division_id": 54,
      "bn_name": "বিআনিবাজার",
      "name": "Beanibazar",
      "phone": "01713374362"
    },
    {
      "id": 506,
      "division_id": 54,
      "bn_name": "গোলাপগঞ্জ",
      "name": "Golapganj",
      "phone": "01713374373"
    },
    {
      "id": 507,
      "division_id": 54,
      "bn_name": "বিশ্বনাথ",
      "name": "Bishwanath",
      "phone": "01713374374"
    },
    {
      "id": 508,
      "division_id": 54,
      "bn_name": "ফেঞ্চুগঞ্জ",
      "name": "Fenchuganj",
      "phone": "01713374375"
    },
    {
      "id": 509,
      "division_id": 54,
      "bn_name": "দক্ষিণ সুরমা",
      "name": "South Surma",
      "phone": "0171337436"
    },
    {
      "id": 510,
      "division_id": 54,
      "bn_name": "ওসমানী নগর",
      "name": "Osmani Nagar",
      "phone": "0171337436"
    },
    {
      "id": 511,
      "district_id": 51,
      "bn_name": "হবিগঞ্জ",
      "name": "Habiganj",
      "phone": "01713374396"
    },
    {
      "id": 512,
      "district_id": 51,
      "bn_name": "মাধবপুর",
      "name": "Madhabpur",
      "phone": "01713374399"
    },
    {
      "id": 513,
      "district_id": 51,
      "bn_name": "চুনারুঘাট",
      "name": "Chunarughat",
      "phone": "01713374400"
    },
    {
      "id": 514,
      "district_id": 51,
      "bn_name": "বাহুবল",
      "name": "Bahubal",
      "phone": "01713374401"
    },
    {
      "id": 515,
      "district_id": 51,
      "bn_name": "লাখাই",
      "name": "Lakhai",
      "phone": "01713374402"
    },
    {
      "id": 516,
      "district_id": 51,
      "bn_name": "নবীগঞ্জ",
      "name": "Nabiganj",
      "phone": "01713374403"
    },
    {
      "id": 517,
      "district_id": 51,
      "bn_name": "বানিয়াচং",
      "name": "Baniachang",
      "phone": "01713374404"
    },
    {
      "id": 518,
      "district_id": 51,
      "bn_name": "আজমিরিগঞ্জ",
      "name": "Ajmiriganj",
      "phone": "01713374405"
    },
    {
      "id": 519,
      "district_id": 51,
      "bn_name": "শায়েস্তাগঞ্জ",
      "name": "Shayestaganj",
      "phone": "01713374406"
    },
    {
      "id": 520,
      "district_id": 52,
      "bn_name": "সুনামগঞ্জ",
      "name": "Sunamganj",
      "phone": "01713374418"
    },
    {
      "id": 521,
      "district_id": 52,
      "bn_name": "ছাতক",
      "name": "Chhatak",
      "phone": "01713374419"
    },
    {
      "id": 522,
      "district_id": 52,
      "bn_name": "জগন্নাথপুর",
      "name": "Jagannathpur",
      "phone": "01713374420"
    },
    {
      "id": 523,
      "district_id": 52,
      "bn_name": "তাহিরপুর",
      "name": "Tahirpur",
      "phone": "01713374421"
    },
    {
      "id": 524,
      "district_id": 52,
      "bn_name": "বিশ্বম্বরপুর",
      "name": "Bishwambarpur",
      "phone": "01713374422"
    },
    {
      "id": 525,
      "district_id": 52,
      "bn_name": "দোয়ারাবাজার",
      "name": "Doarabazar",
      "phone": "01713374423"
    },
    {
      "id": 526,
      "district_id": 52,
      "bn_name": "দিরাই",
      "name": "Dirai",
      "phone": "01713374424"
    },
    {
      "id": 527,
      "district_id": 52,
      "bn_name": "সালনা",
      "name": "Salna",
      "phone": "01713374425"
    },
    {
      "id": 528,
      "district_id": 52,
      "bn_name": "জামালগঞ্জ",
      "name": "Jamalganj",
      "phone": "01713374427"
    },
    {
      "id": 529,
      "district_id": 52,
      "bn_name": "ধর্মপাশা",
      "name": "Dharmapasha",
      "phone": "01713374427"
    },
    {
      "id": 530,
      "district_id": 52,
      "bn_name": "মধ্যনগর",
      "name": "Madhyanagar",
      "phone": "01713374427"
    },
    {
      "id": 531,
      "district_id": 53,
      "bn_name": "মৌলভীবাজার",
      "name": "Moulvibazar",
      "phone": "01713374439"
    },
    {
      "id": 532,
      "district_id": 53,
      "bn_name": "শ্রীমঙ্গল",
      "name": "Srimangal",
      "phone": "01713374440"
    },
    {
      "id": 533,
      "district_id": 53,
      "bn_name": "কমলগঞ্জ",
      "name": "Kamalganj",
      "phone": "01713374441"
    },
    {
      "id": 534,
      "district_id": 53,
      "bn_name": "রাজনগর",
      "name": "Rajnagar",
      "phone": "01713374442"
    },
    {
      "id": 535,
      "district_id": 53,
      "bn_name": "কুলাউরা",
      "name": "Kulaura",
      "phone": "01713374443"
    },
    {
      "id": 536,
      "district_id": 53,
      "bn_name": "বারলেকা",
      "name": "Baralekha",
      "phone": "01713374444"
    },
    {
      "id": 537,
      "district_id": 53,
      "bn_name": "জুরি",
      "name": "Jury",
      "phone": "01713374445"
    }
  ]
}
